NORAD_CAT_ID,OBJECT_NAME,OBJECT_TYPE,EPOCH,MEAN_MOTION,ECCENTRICITY,INCLINATION,RA_OF_ASC_NODE,ARG_OF_PERICENTER,MEAN_ANOMALY,BSTAR,MEAN_MOTION_DOT,MEAN_MOTION_DDOT,TLE_LINE0,TLE_LINE1,TLE_LINE2,SEMIMAJOR_AXIS,PERIOD,APOGEE,PERIGEE,DECAYED
49138.0,STARLINK-3058,PAYLOAD,2022-01-21 14:00:01,14.97508633,0.0003176,70.0008,136.8862,266.3167,13.4087,-6.0599e-06,-1.63e-06,0.0,0 STARLINK-3058,1 49138U 21082J   22021.58334491 -.00000163  00000-0 -60599-5 0  9998,2 49138  70.0008 136.8862 0003176 266.3167  13.4087 14.97508633  3589,6952.734,96.16,576.807,572.391,0.0
49138.0,STARLINK-3058,PAYLOAD,2022-01-21 22:00:00,14.975365300000002,0.0003149,70.0005,136.0467,267.2739,8.9421,-0.0041063,-0.00047769,0.0,0 STARLINK-3058,1 49138U 21082J   22021.91667824 -.00047769  00000-0 -41063-2 0  9999,2 49138  70.0005 136.0467 0003149 267.2739   8.9421 14.97536530 20121,6952.648,96.158,576.702,572.323,0.0
49138.0,STARLINK-3058,PAYLOAD,2022-01-22 02:00:01,14.97495644,0.0003174,70.0007,135.627,263.8491,190.6336,0.0023042,0.00026919,0.0,0 STARLINK-3058,1 49138U 21082J   22022.08334491  .00026919  00000-0  23042-2 0  9998,2 49138  70.0007 135.6270 0003174 263.8491 190.6336 14.97495644 20152,6952.774,96.161,576.846,572.432,0.0
49138.0,STARLINK-3058,PAYLOAD,2022-01-22 22:00:00,14.97547482,0.000312,70.0002,133.5287,268.0311,357.7153,-0.0042606,-0.00049562,0.0,0 STARLINK-3058,1 49138U 21082J   22022.91667824 -.00049562  00000-0 -42606-2 0  9997,2 49138  70.0002 133.5287 0003120 268.0311 357.7153 14.97547482  3579,6952.614000000001,96.157,576.648,572.31,0.0
49138.0,STARLINK-3058,PAYLOAD,2022-01-23 06:00:00,14.97514207,0.000315,70.0003,132.6894,262.7758,359.4958,0.0034054,0.00039922,0.0,0 STARLINK-3058,1 49138U 21082J   22023.25001157  .00039922  00000-0  34054-2 0  9991,2 49138  70.0003 132.6894 0003150 262.7758 359.4958 14.97514207 20326,6952.717,96.159,576.7719999999998,572.3919999999998,0.0
49138.0,STARLINK-3058,PAYLOAD,2022-01-23 14:00:01,14.97523662,0.0003151,70.0003,131.8499,268.5804,350.22,0.0010005,0.00011619,0.0,0 STARLINK-3058,1 49138U 21082J   22023.58334491  .00011619  00000-0  10005-2 0  9990,2 49138  70.0003 131.8499 0003151 268.5804 350.2200 14.97523662  3577,6952.688,96.159,576.743,572.362,0.0
49138.0,STARLINK-3058,PAYLOAD,2022-01-23 22:00:00,14.9755343,0.0003122,69.9997,131.0128,268.1441,347.1677,-0.004572,-0.00053158,0.0,0 STARLINK-3058,1 49138U 21082J   22023.91667824 -.00053158  00000-0 -45720-2 0  9994,2 49138  69.9997 131.0128 0003122 268.1441 347.1677 14.97553430 20420,6952.595,96.157,576.631,572.29,0.0
49138.0,STARLINK-3058,PAYLOAD,2022-01-24 06:00:02,14.97526289,0.0003148,70.0,130.1709,262.8611,349.0518,0.0028823,0.00033756,0.0,0 STARLINK-3058,1 49138U 21082J   22024.25002315  .00033756  00000-0  28823-2 0  9995,2 49138  70.0000 130.1709 0003148 262.8611 349.0518 14.97526289 20473,6952.679,96.159,576.7330000000002,572.356,0.0
49138.0,STARLINK-3058,PAYLOAD,2022-01-24 14:00:01,14.97532397,0.0003164,70.0001,129.3314,268.6072,339.7859,0.0011242,0.00013073,0.0,0 STARLINK-3058,1 49138U 21082J   22024.58334491  .00013073  00000-0  11242-2 0  9991,2 49138  70.0001 129.3314 0003164 268.6072 339.7859 14.97532397  3561,6952.661,96.158,576.725,572.326,0.0
49138.0,STARLINK-3058,PAYLOAD,2022-01-24 22:00:00,14.97571027,0.0003128,69.9997,128.4919,268.0013,336.9188,-0.0062928,-0.00072959,0.0,0 STARLINK-3058,1 49138U 21082J   22024.91667824 -.00072959  00000-0 -62928-2 0  9994,2 49138  69.9997 128.4919 0003128 268.0013 336.9188 14.97571027 20579,6952.541,96.156,576.581,572.231,0.0
49138.0,STARLINK-3058,PAYLOAD,2022-01-25 14:00:01,14.97500893,0.0003074,70.0,126.8129,268.3431,329.6453,0.0012277999999999,0.00014277,0.0,0 STARLINK-3058,1 49138U 21082J   22025.58334491  .00014277  00000-0  12278-2 0  9999,2 49138  70.0000 126.8129 0003074 268.3431 329.6453 14.97500893 20677,6952.7580000000025,96.16,576.76,572.486,0.0
49138.0,STARLINK-3058,PAYLOAD,2022-01-25 22:00:00,14.97531716,0.0003083,69.9997,125.9733,267.6,326.8753,-0.0041556999999999,-0.00048333,0.0,0 STARLINK-3058,1 49138U 21082J   22025.91667824 -.00048333  00000-0 -41557-2 0  9999,2 49138  69.9997 125.9733 0003083 267.6000 326.8753 14.97531716  3596,6952.663000000001,96.158,576.6709999999998,572.384,0.0
49138.0,STARLINK-3058,PAYLOAD,2022-01-26 06:00:00,14.97523038,0.0003099,70.0001,125.1423,267.8189,323.1159,-0.00010394,-1.307e-05,0.0,0 STARLINK-3058,1 49138U 21082J   22026.25001157 -.00001307  00000-0 -10394-3 0  9994,2 49138  70.0001 125.1423 0003099 267.8189 323.1159 14.97523038 20777,6952.689,96.159,576.7090000000002,572.4,0.0
49138.0,STARLINK-3058,PAYLOAD,2022-01-26 14:00:01,14.97507102,0.000314,70.0001,124.2946,268.6671,318.8334,0.0015099,0.00017589,0.0,0 STARLINK-3058,1 49138U 21082J   22026.58334491  .00017589  00000-0  15099-2 0  9993,2 49138  70.0001 124.2946 0003140 268.6671 318.8334 14.97507102  3578,6952.739000000001,96.16,576.7869999999998,572.4209999999998,0.0
49138.0,STARLINK-3058,PAYLOAD,2022-01-26 22:00:00,14.97543868,0.0003145,69.9999,123.4551,267.8511,316.1557,-0.0038524,-0.00044848,0.0,0 STARLINK-3058,1 49138U 21082J   22026.91667824 -.00044848  00000-0 -38524-2 0  9997,2 49138  69.9999 123.4551 0003145 267.8511 316.1557 14.97543868 20872,6952.625,96.157,576.677,572.303,0.0
49138.0,STARLINK-3058,PAYLOAD,2022-01-27 04:00:00,14.97499834,0.0003218,70.0002,122.8256,263.7249,227.6811,0.0053461,0.00062909,0.0,0 STARLINK-3058,1 49138U 21082J   22027.16667824  .00062909  00000-0  53461-2 0  9998,2 49138  70.0002 122.8256 0003218 263.7249 227.6811 14.97499834 20916,6952.761,96.16,576.864,572.389,0.0
49138.0,STARLINK-3058,PAYLOAD,2022-01-27 13:02:02,14.9752905,0.0003058,69.9989,121.878,265.0304,95.0505,6.331300000000001e-05,6.48e-06,0.0,0 STARLINK-3058,1 49138U 21082J   22027.54308361  .00000648  00000-0  63313-4 0  9999,2 49138  69.9989 121.8780 0003058 265.0304  95.0505 14.97529050 20974,6952.670999999999,96.158,576.6619999999998,572.41,0.0
49138.0,STARLINK-3058,PAYLOAD,2022-01-27 22:00:00,14.97542443,0.000307,70.0003,120.9371,268.2897,305.289,-0.0057987,-0.00067242,0.0,0 STARLINK-3058,1 49138U 21082J   22027.91667824 -.00067242  00000-0 -57987-2 0  9995,2 49138  70.0003 120.9371 0003070 268.2897 305.2890 14.97542443 21027,6952.629,96.158,576.629,572.36,0.0
49138.0,STARLINK-3058,PAYLOAD,2022-01-28 06:00:02,14.97515519,0.0003072,70.0007,120.0979,263.8779,306.267,0.00087778,0.00010178,0.0,0 STARLINK-3058,1 49138U 21082J   22028.25002315  .00010178  00000-0  87778-3 0  9997,2 49138  70.0007 120.0979 0003072 263.8779 306.2670 14.97515519 21074,6952.7130000000025,96.159,576.714,572.442,0.0
49138.0,STARLINK-3058,PAYLOAD,2022-01-28 12:00:00,14.97514999,0.0003091,70.0007,119.4684,268.8515,208.616,-0.00073342,-8.651e-05,0.0,0 STARLINK-3058,1 49138U 21082J   22028.50001157 -.00008651  00000-0 -73342-3 0  9995,2 49138  70.0007 119.4684 0003091 268.8515 208.6160 14.97514999  3567,6952.714,96.159,576.7280000000002,572.43,0.0
49138.0,STARLINK-3058,PAYLOAD,2022-01-28 22:00:00,14.97533511,0.0003009,70.0005,118.4192,268.9769,294.1173,-0.0035577,-0.00041433,0.0,0 STARLINK-3058,1 49138U 21082J   22028.91667824 -.00041433  00000-0 -35577-2 0  9991,2 49138  70.0005 118.4192 0003009 268.9769 294.1173 14.97533511  3564,6952.656999999997,96.158,576.614,572.43,0.0
49138.0,STARLINK-3058,PAYLOAD,2022-01-29 06:00:00,14.97526957,0.0003032,70.0009,117.58,264.7513,294.8487,0.00052275,6.022e-05,0.0,0 STARLINK-3058,1 49138U 21082J   22029.25001157  .00006022  00000-0  52275-3 0  9998,2 49138  70.0009 117.5800 0003032 264.7513 294.8487 14.97526957 21225,6952.677,96.159,576.65,572.434,0.0
49138.0,STARLINK-3058,PAYLOAD,2022-01-29 14:00:01,14.97509581,0.0003046,70.001,116.7406,271.8735,284.2567,0.0026139,0.00030577,0.0,0 STARLINK-3058,1 49138U 21082J   22029.58334491  .00030577  00000-0  26139-2 0  9995,2 49138  70.0010 116.7406 0003046 271.8735 284.2567 14.97509581  3585,6952.731,96.16,576.714,572.4780000000002,0.0
49138.0,STARLINK-3058,PAYLOAD,2022-01-29 22:00:00,14.9754346,0.000302,70.0007,115.9012,269.3154,283.3278,-0.0031275,-0.00036469,0.0,0 STARLINK-3058,1 49138U 21082J   22029.91667824 -.00036469  00000-0 -31275-2 0  9996,2 49138  70.0007 115.9012 0003020 269.3154 283.3278 14.97543460  3587,6952.626,96.157,576.591,572.3919999999998,0.0
49138.0,STARLINK-3058,PAYLOAD,2022-01-30 14:00:01,14.97521262,0.0003167,70.0011,114.2224,271.7075,274.0072,-0.00018703,-2.277e-05,0.0,0 STARLINK-3058,1 49138U 21082J   22030.58334491 -.00002277  00000-0 -18703-3 0  9994,2 49138  70.0011 114.2224 0003167 271.7075 274.0072 14.97521262 21428,6952.695,96.159,576.762,572.3580000000002,0.0
49138.0,STARLINK-3058,PAYLOAD,2022-01-30 22:00:00,14.97527987,0.0003208,70.0008,113.383,268.9475,273.2781,-0.0026638,-0.00031088,0.0,0 STARLINK-3058,1 49138U 21082J   22030.91667824 -.00031088  00000-0 -26638-2 0  9997,2 49138  70.0008 113.3830 0003208 268.9475 273.2781 14.97527987  3580,6952.674,96.158,576.77,572.309,0.0
49138.0,STARLINK-3058,PAYLOAD,2022-01-31 14:00:01,14.97511257,0.0003279,70.0011,111.7042,271.4929,263.8293,0.0027985,0.00032755,0.0,0 STARLINK-3058,1 49138U 21082J   22031.58335648  .00032755  00000-0  27985-2 0  9993,2 49138  70.0011 111.7042 0003279 271.4929 263.8293 14.97511257 21577,6952.726,96.16,576.871,572.311,0.0
49138.0,STARLINK-3058,PAYLOAD,2022-01-31 22:00:01,14.97547523,0.0003256,70.0007,110.8647,268.79200000000003,263.0441,-0.0042946999999999,-0.00049956,0.0,0 STARLINK-3058,1 49138U 21082J   22031.91668981 -.00049956  00000-0 -42947-2 0  9997,2 49138  70.0007 110.8647 0003256 268.7920 263.0441 14.97547523  3570,6952.614000000001,96.157,576.742,572.215,0.0
49138.0,STARLINK-3058,PAYLOAD,2022-02-01 06:00:00,14.97542019,0.0003214,70.0006,110.0282,265.8049,262.48900000000003,-0.0039742,-0.00046252,0.0,0 STARLINK-3058,1 49138U 21082J   22032.25001157 -.00046252  00000-0 -39742-2 0  9996,2 49138  70.0006 110.0282 0003214 265.8049 262.4890 14.97542019 21677,6952.630999999999,96.158,576.73,572.261,0.0
